{"fetched_at":"2026-03-29T02:12:04Z","count":15717,"tles":[{"name":"GUOWANG GROUP 20 OBJECT*","line1":"1 68136U 26047H   26084.03205513 -.00000099  00000+0  33918-4 0  9998","line2":"2 68136  49.9530   7.8688 0014532 103.7924 256.4596 14.01074305  1715","category":"Other"}]}